STARLINK-31867          
1 60139U 24120E   25315.82042113  .00026304  00000+0  81991-3 0  9990
2 60139  53.1575 147.1598 0001528 173.9741 186.1280 15.33095077 78337
STARLINK-31694          
1 60140U 24120F   25316.26024472 -.00000108  00000+0  84878-5 0  9993
2 60140  53.1624 145.6265 0001176  91.7459 268.3677 15.30190239 78471
STARLINK-32036          
1 60141U 24120G   25315.93262266 -.00001026  00000+0 -22520-4 0  9998
2 60141  53.1597 147.1372 0001222  93.1294 266.9846 15.30183905 78421
STARLINK-32031          
1 60142U 24120H   25315.92628738 -.00000679  00000+0 -10814-4 0  9994
2 60142  53.1608 147.0963 0001096  91.1242 268.9885 15.30189081 78426
STARLINK-32027          
1 60143U 24120J   25315.81770182 -.00001952  00000+0 -53799-4 0  9998
2 60143  53.1608 147.0876 0001547  84.2029 275.9148 15.30193117 78411
STARLINK-32033          
1 60144U 24120K   25316.22711894  .00000586  00000+0  31186-4 0  9996
2 60144  53.1600 145.4183 0001226  85.8371 274.2770 15.31036041 78391
STARLINK-32029          
1 60145U 24120L   25316.24336357 -.00000591  00000+0 -78324-5 0  9990
2 60145  53.1599 145.5193 0001104 106.4608 253.6514 15.30186238 78399
STARLINK-32127          
1 60146U 24120M   25315.94621340 -.00003869  00000+0 -11865-3 0  9992
2 60146  53.1606 146.5083 0000675  90.5442 269.5636 15.30184361 78351
STARLINK-32019          
1 60147U 24120N   25315.95573162 -.00000206  00000+0  51720-5 0  9999
2 60147  53.1581 146.5650 0001268  94.2597 265.8549 15.30191610 78352
STARLINK-32021          
1 60148U 24120P   25316.22340063  .00000594  00000+0  32199-4 0  9990
2 60148  53.1594 135.4425 0001960  83.1839 276.9384 15.30184446 78617
STARLINK-32022          
1 60149U 24120Q   25316.23386543 -.00000165  00000+0  65643-5 0  9991
2 60149  53.1588 145.4590 0001144  89.7570 270.3561 15.30191358 78472
STARLINK-32014          
1 60150U 24120R   25316.22437045 -.00001338  00000+0 -33009-4 0  9990
2 60150  53.1531 145.3992 0003864  80.6497 279.4941 15.30194498 78397
STARLINK-32004          
1 60151U 24120S   25315.83564302 -.00000422  00000+0 -21105-5 0  9992
2 60151  53.1618 147.2385 0001505  88.3115 271.8058 15.30196564 78417
STARLINK-32147          
1 60152U 24120T   25316.26341103  .00003234  00000+0  12123-3 0  9993
2 60152  53.1603 145.6449 0001171  83.3311 276.7823 15.30213070 78390
STARLINK-32131          
1 60153U 24120U   25315.98526741 -.00001279  00000+0 -31086-4 0  9994
2 60153  53.1605 146.7512 0001006  85.7372 274.3744 15.30193168 78432
STARLINK-32145          
1 60154U 24120V   25315.95891982 -.00006640  00000+0 -21244-3 0  9995
2 60154  53.1539 146.5818 0002334  95.4766 264.6501 15.30164498 78354
