[{"OBJECT_NAME":"STARLINK-31867","OBJECT_ID":"2024-120E","EPOCH":"2025-11-11T19:41:24.385632","MEAN_MOTION":15.33095077,"ECCENTRICITY":0.00015281,"INCLINATION":53.1575,"RA_OF_ASC_NODE":147.1598,"ARG_OF_PERICENTER":173.9741,"MEAN_ANOMALY":186.128,"EPHEMERIS_TYPE":0,"CLASSIFICATION_TYPE":"U","NORAD_CAT_ID":60139,"ELEMENT_SET_NO":999,"REV_AT_EPOCH":7833,"BSTAR":0.00081991192,"MEAN_MOTION_DOT":0.00026304,"MEAN_MOTION_DDOT":0},{"OBJECT_NAME":"STARLINK-31694","OBJECT_ID":"2024-120F","EPOCH":"2025-11-12T06:14:45.143808","MEAN_MOTION":15.30190239,"ECCENTRICITY":0.00011767,"INCLINATION":53.1624,"RA_OF_ASC_NODE":145.6265,"ARG_OF_PERICENTER":91.7459,"MEAN_ANOMALY":268.3677,"EPHEMERIS_TYPE":0,"CLASSIFICATION_TYPE":"U","NORAD_CAT_ID":60140,"ELEMENT_SET_NO":999,"REV_AT_EPOCH":7847,"BSTAR":8.487824e-6,"MEAN_MOTION_DOT":-1.08e-6,"MEAN_MOTION_DDOT":0},{"OBJECT_NAME":"STARLINK-32036","OBJECT_ID":"2024-120G","EPOCH":"2025-11-11T22:22:58.597824","MEAN_MOTION":15.30183905,"ECCENTRICITY":0.00012221,"INCLINATION":53.1597,"RA_OF_ASC_NODE":147.1372,"ARG_OF_PERICENTER":93.1294,"MEAN_ANOMALY":266.9846,"EPHEMERIS_TYPE":0,"CLASSIFICATION_TYPE":"U","NORAD_CAT_ID":60141,"ELEMENT_SET_NO":999,"REV_AT_EPOCH":7842,"BSTAR":-2.2519765e-5,"MEAN_MOTION_DOT":-1.026e-5,"MEAN_MOTION_DDOT":0},{"OBJECT_NAME":"STARLINK-32031","OBJECT_ID":"2024-120H","EPOCH":"2025-11-11T22:13:51.229632","MEAN_MOTION":15.30189081,"ECCENTRICITY":0.00010969,"INCLINATION":53.1608,"RA_OF_ASC_NODE":147.0963,"ARG_OF_PERICENTER":91.1242,"MEAN_ANOMALY":268.9885,"EPHEMERIS_TYPE":0,"CLASSIFICATION_TYPE":"U","NORAD_CAT_ID":60142,"ELEMENT_SET_NO":999,"REV_AT_EPOCH":7842,"BSTAR":-1.0813771e-5,"MEAN_MOTION_DOT":-6.79e-6,"MEAN_MOTION_DDOT":0},{"OBJECT_NAME":"STARLINK-32027","OBJECT_ID":"2024-120J","EPOCH":"2025-11-11T19:37:29.437248","MEAN_MOTION":15.30193117,"ECCENTRICITY":0.00015479,"INCLINATION":53.1608,"RA_OF_ASC_NODE":147.0876,"ARG_OF_PERICENTER":84.2029,"MEAN_ANOMALY":275.9148,"EPHEMERIS_TYPE":0,"CLASSIFICATION_TYPE":"U","NORAD_CAT_ID":60143,"ELEMENT_SET_NO":999,"REV_AT_EPOCH":7841,"BSTAR":-5.3799319e-5,"MEAN_MOTION_DOT":-1.952e-5,"MEAN_MOTION_DDOT":0},{"OBJECT_NAME":"STARLINK-32033","OBJECT_ID":"2024-120K","EPOCH":"2025-11-12T05:27:03.076416","MEAN_MOTION":15.31036041,"ECCENTRICITY":0.00012268,"INCLINATION":53.16,"RA_OF_ASC_NODE":145.4183,"ARG_OF_PERICENTER":85.8371,"MEAN_ANOMALY":274.277,"EPHEMERIS_TYPE":0,"CLASSIFICATION_TYPE":"U","NORAD_CAT_ID":60144,"ELEMENT_SET_NO":999,"REV_AT_EPOCH":7839,"BSTAR":3.1185875e-5,"MEAN_MOTION_DOT":5.86e-6,"MEAN_MOTION_DDOT":0},{"OBJECT_NAME":"STARLINK-32029","OBJECT_ID":"2024-120L","EPOCH":"2025-11-12T05:50:26.612448","MEAN_MOTION":15.30186238,"ECCENTRICITY":0.00011041,"INCLINATION":53.1599,"RA_OF_ASC_NODE":145.5193,"ARG_OF_PERICENTER":106.4608,"MEAN_ANOMALY":253.6514,"EPHEMERIS_TYPE":0,"CLASSIFICATION_TYPE":"U","NORAD_CAT_ID":60145,"ELEMENT_SET_NO":999,"REV_AT_EPOCH":7839,"BSTAR":-7.832367e-6,"MEAN_MOTION_DOT":-5.91e-6,"MEAN_MOTION_DDOT":0},{"OBJECT_NAME":"STARLINK-32127","OBJECT_ID":"2024-120M","EPOCH":"2025-11-11T22:42:32.837760","MEAN_MOTION":15.30184361,"ECCENTRICITY":6.755e-5,"INCLINATION":53.1606,"RA_OF_ASC_NODE":146.5083,"ARG_OF_PERICENTER":90.5442,"MEAN_ANOMALY":269.5636,"EPHEMERIS_TYPE":0,"CLASSIFICATION_TYPE":"U","NORAD_CAT_ID":60146,"ELEMENT_SET_NO":999,"REV_AT_EPOCH":7835,"BSTAR":-0.00011864709,"MEAN_MOTION_DOT":-3.869e-5,"MEAN_MOTION_DDOT":0},{"OBJECT_NAME":"STARLINK-32019","OBJECT_ID":"2024-120N","EPOCH":"2025-11-11T22:56:15.211968","MEAN_MOTION":15.3019161,"ECCENTRICITY":0.00012682,"INCLINATION":53.1581,"RA_OF_ASC_NODE":146.565,"ARG_OF_PERICENTER":94.2597,"MEAN_ANOMALY":265.8549,"EPHEMERIS_TYPE":0,"CLASSIFICATION_TYPE":"U","NORAD_CAT_ID":60147,"ELEMENT_SET_NO":999,"REV_AT_EPOCH":7835,"BSTAR":5.171974e-6,"MEAN_MOTION_DOT":-2.06e-6,"MEAN_MOTION_DDOT":0},{"OBJECT_NAME":"STARLINK-32021","OBJECT_ID":"2024-120P","EPOCH":"2025-11-12T05:21:41.814432","MEAN_MOTION":15.30184446,"ECCENTRICITY":0.00019601,"INCLINATION":53.1594,"RA_OF_ASC_NODE":135.4425,"ARG_OF_PERICENTER":83.1839,"MEAN_ANOMALY":276.9384,"EPHEMERIS_TYPE":0,"CLASSIFICATION_TYPE":"U","NORAD_CAT_ID":60148,"ELEMENT_SET_NO":999,"REV_AT_EPOCH":7861,"BSTAR":3.2199172e-5,"MEAN_MOTION_DOT":5.94e-6,"MEAN_MOTION_DDOT":0},{"OBJECT_NAME":"STARLINK-32022","OBJECT_ID":"2024-120Q","EPOCH":"2025-11-12T05:36:45.973152","MEAN_MOTION":15.30191358,"ECCENTRICITY":0.00011441,"INCLINATION":53.1588,"RA_OF_ASC_NODE":145.459,"ARG_OF_PERICENTER":89.757,"MEAN_ANOMALY":270.3561,"EPHEMERIS_TYPE":0,"CLASSIFICATION_TYPE":"U","NORAD_CAT_ID":60149,"ELEMENT_SET_NO":999,"REV_AT_EPOCH":7847,"BSTAR":6.564307e-6,"MEAN_MOTION_DOT":-1.65e-6,"MEAN_MOTION_DDOT":0},{"OBJECT_NAME":"STARLINK-32014","OBJECT_ID":"2024-120R","EPOCH":"2025-11-12T05:23:05.606880","MEAN_MOTION":15.30194498,"ECCENTRICITY":0.00038649,"INCLINATION":53.1531,"RA_OF_ASC_NODE":145.3992,"ARG_OF_PERICENTER":80.6497,"MEAN_ANOMALY":279.4941,"EPHEMERIS_TYPE":0,"CLASSIFICATION_TYPE":"U","NORAD_CAT_ID":60150,"ELEMENT_SET_NO":999,"REV_AT_EPOCH":7839,"BSTAR":-3.3008984e-5,"MEAN_MOTION_DOT":-1.338e-5,"MEAN_MOTION_DDOT":0},{"OBJECT_NAME":"STARLINK-32004","OBJECT_ID":"2024-120S","EPOCH":"2025-11-11T20:03:19.556928","MEAN_MOTION":15.30196564,"ECCENTRICITY":0.00015055,"INCLINATION":53.1618,"RA_OF_ASC_NODE":147.2385,"ARG_OF_PERICENTER":88.3115,"MEAN_ANOMALY":271.8058,"EPHEMERIS_TYPE":0,"CLASSIFICATION_TYPE":"U","NORAD_CAT_ID":60151,"ELEMENT_SET_NO":999,"REV_AT_EPOCH":7841,"BSTAR":-2.110473e-6,"MEAN_MOTION_DOT":-4.22e-6,"MEAN_MOTION_DDOT":0},{"OBJECT_NAME":"STARLINK-32147","OBJECT_ID":"2024-120T","EPOCH":"2025-11-12T06:19:18.712992","MEAN_MOTION":15.3021307,"ECCENTRICITY":0.00011719,"INCLINATION":53.1603,"RA_OF_ASC_NODE":145.6449,"ARG_OF_PERICENTER":83.3311,"MEAN_ANOMALY":276.7823,"EPHEMERIS_TYPE":0,"CLASSIFICATION_TYPE":"U","NORAD_CAT_ID":60152,"ELEMENT_SET_NO":999,"REV_AT_EPOCH":7839,"BSTAR":0.00012122899,"MEAN_MOTION_DOT":3.234e-5,"MEAN_MOTION_DDOT":0},{"OBJECT_NAME":"STARLINK-32131","OBJECT_ID":"2024-120U","EPOCH":"2025-11-11T23:38:47.104224","MEAN_MOTION":15.30193168,"ECCENTRICITY":0.00010063,"INCLINATION":53.1605,"RA_OF_ASC_NODE":146.7512,"ARG_OF_PERICENTER":85.7372,"MEAN_ANOMALY":274.3744,"EPHEMERIS_TYPE":0,"CLASSIFICATION_TYPE":"U","NORAD_CAT_ID":60153,"ELEMENT_SET_NO":999,"REV_AT_EPOCH":7843,"BSTAR":-3.1085996e-5,"MEAN_MOTION_DOT":-1.279e-5,"MEAN_MOTION_DDOT":0},{"OBJECT_NAME":"STARLINK-32145","OBJECT_ID":"2024-120V","EPOCH":"2025-11-11T23:00:50.672448","MEAN_MOTION":15.30164498,"ECCENTRICITY":0.00023347,"INCLINATION":53.1539,"RA_OF_ASC_NODE":146.5818,"ARG_OF_PERICENTER":95.4766,"MEAN_ANOMALY":264.6501,"EPHEMERIS_TYPE":0,"CLASSIFICATION_TYPE":"U","NORAD_CAT_ID":60154,"ELEMENT_SET_NO":999,"REV_AT_EPOCH":7835,"BSTAR":-0.00021243996,"MEAN_MOTION_DOT":-6.64e-5,"MEAN_MOTION_DDOT":0}]
